25162,GLOBALSTAR M001,1998,116.3,-1.0,-,52.0,Inactive,0,LEO,USA,Globalstar,Unknown,Unknown,Unknown,1 25162U 98008A   24296.48696424 -.00000041  00000+0  42791-3 0  9998,2 25162  52.0036 305.0651 0001709 104.8648  61.1552 12.38197232214377,12.38197232,0.0001709,LEO
25163,GLOBALSTAR M004,1998,113.98,-1.0,-,52.0,Inactive,0,LEO,USA,Globalstar,Unknown,Unknown,Unknown,1 25163U 98008B   24297.52838939 -.00000089  00000+0  83310-4 0  9999,2 25163  52.0012  56.1279 0003760 122.4384 318.2272 12.63375982231871,12.63375982,0.000376,LEO
25164,GLOBALSTAR M002,1998,123.98,-1.0,-,52.0,Inactive,0,LEO,USA,Globalstar,Unknown,Unknown,Unknown,1 25164U 98008C   24296.90468841 -.00000089  00000+0 -24969-3 0  9997,2 25164  51.9985 115.1466 0002408  81.9678 278.1415 11.61504839156495,11.61504839,0.0002408,LEO
25165,GLOBALSTAR M003,1998,118.81,-1.0,-,51.99,Inactive,0,LEO,USA,Globalstar,Unknown,Unknown,Unknown,1 25165U 98008D   24297.22087892  .00000025  00000+0  12203-2 0  9992,2 25165  51.9929 104.8067 0008348 171.4449 359.3125 12.12046648204575,12.12046648,0.0008348,LEO
25306,GLOBALSTAR M014,1998,123.55,-1.0,-,51.99,Inactive,0,LEO,USA,Globalstar,Unknown,Unknown,Unknown,1 25306U 98023A   24297.57488219 -.00000047  00000+0  56467-3 0  9998,2 25306  51.9866  41.6648 0000316 247.5788 126.1726 11.65473291163579,11.65473291,3.16e-05,LEO
25307,GLOBALSTAR M006,1998,124.33,-1.0,-,51.99,Inactive,0,LEO,USA,Globalstar,Unknown,Unknown,Unknown,1 25307U 98023B   24296.81050830 -.00000068  00000+0  15045-3 0  9999,2 25307  51.9926  87.1978 0004145  49.8763 101.1564 11.58168779189326,11.58168779,0.0004145,LEO
25308,GLOBALSTAR M015,1998,125.34,-1.0,-,51.98,Inactive,0,LEO,USA,Globalstar,Unknown,Unknown,Unknown,1 25308U 98023C   24296.87770461 -.00000066  00000+0  16740-3 0  9996,2 25308  51.9800 174.6307 0013149  17.6998  65.5842 11.48853737166807,11.48853737,0.0013149,LEO
25309,GLOBALSTAR M008,1998,116.5,-1.0,-,51.99,Inactive,0,LEO,USA,Globalstar,Unknown,Unknown,Unknown,1 25309U 98023D   24297.40852196 -.00000068  00000+0  22162-3 0  9990,2 25309  51.9949 164.5298 0003374  47.7329 123.3243 12.36052624208876,12.36052624,0.0003374,LEO
